{"type": "FeatureCollection", "coordinate_system": {"kind": "local_game_meters", "not_wgs84": true, "axes": {"geojson_x": "local_east_m", "geojson_y": "local_north_m"}, "projected_crs": "EPSG:32618", "local_origin": {"easting_m": 675422.0349412871, "northing_m": 4828388.647462899, "longitude": -72.8270000418769, "latitude": 43.58781981904106}, "note": "This is not RFC 7946 WGS84 GeoJSON. 1000 ft (305 m) ski-area buffer in local meters."}, "attribution": "\u00a9 OpenStreetMap contributors (ODbL)", "layer": "ski-area-buffer", "features": [{"type": "Feature", "geometry": {"type": "Polygon", "coordinates": [[[120.11811913142446, 4188.011652893387], [96.57786556740757, 4243.852233400568], [80.86284689186141, 4339.271317045204], [84.29674376535695, 4425.972374456935], [100.17184950399678, 4481.711076138541], [126.30377603741363, 4533.440606032498], [182.5760820900323, 4599.4882598547265], [229.4988301321864, 4633.504102685489], [282.0088339271024, 4658.030034855008], [840.4618074069731, 4798.782930323854], [924.9403832879616, 4809.545847294852], [981.4943950125016, 4803.487232442945], [1116.2921977186343, 4762.915131486021], [1185.9969598884927, 4723.681906976737], [1317.3056279496523, 4624.057593656704], [1360.283744544955, 4623.439374936745], [1732.9778376590693, 4719.254191209562], [1839.3653394530993, 4772.920026816428], [1911.5924519987311, 4791.441269549541], [1957.3633084377507, 4835.288789219223], [1992.1378503204323, 4905.1670999778435], [2049.0122289716965, 4969.41302532237], [2121.5301670150366, 5015.275673869066], [2203.952411354636, 5039.125359575264], [2322.391364297713, 5037.433437767439], [2415.8775492308196, 5014.225850025192], [2472.064359928714, 4987.34459709283], [2521.6186401254963, 4949.609563373029], [2578.457744313986, 4884.418920223601], [2622.951176490402, 4790.749475769699], [2717.038164336118, 4721.654851112515], [3064.845045485883, 4551.309745919891], [3125.454308337765, 4608.219355003908], [3242.9670722757, 4973.474820976146], [3268.224159755395, 5030.908430300653], [3304.6989079390187, 5081.958726018667], [3376.9536367190303, 5141.93646674417], [3539.9646636984544, 5217.829017627984], [3629.6930871595396, 5234.6091851191595], [3690.545809876756, 5230.619149279781], [3749.38834758976, 5214.6025952305645], [3803.868280169787, 5187.199836354703], [3851.8075966951437, 5149.506386267953], [3891.2897684467025, 5103.029162148945], [3975.6037868709536, 4942.104191836901], [3988.198416382773, 4886.114194906317], [3990.0816941180965, 4828.756041921675], [3981.1869435535045, 4772.060470124707], [3961.8290789647726, 4718.034758400172], [3828.5149284512736, 4452.998304836452], [3820.9375797723187, 4360.601262249984], [3878.0500374202384, 4117.231926320121], [3875.695449433988, 4057.733760417439], [3861.8254596360493, 3999.8269455041736], [3836.968711945694, 3945.718554984778], [3675.284283984569, 3672.3970017600805], [3538.3329812628217, 3522.092875599861], [5055.048916112399, 3472.452144248411], [5236.023907734547, 3546.714888365008], [5439.416507598362, 3607.0893954401836], [5498.434599296073, 3618.0918598249555], [5588.131212063716, 3612.5114592546597], [5672.307647341513, 3581.03208574187], [5743.655532632954, 3526.386843706481], [5780.97183183278, 3479.358307856135], [5854.689119351795, 3336.902347599156], [5950.058176580467, 3222.592980469577], [5978.185537047335, 3169.212370787747], [5995.254080220358, 3111.3392100753263], [6000.595809485647, 3051.2384295044467], [5994.001670266967, 2991.262140649371], [5946.02017494943, 2855.6557655055076], [5880.184422221617, 2774.9387167748064], [5852.249780565035, 2608.7279078634456], [5830.52979374805, 2550.9934685630724], [5797.637340850779, 2498.8100435016677], [5730.405131399748, 2435.528392217122], [5676.327804924804, 2405.8523737862706], [5617.385372345801, 2387.664109702222], [5511.082622057525, 2367.803153335117], [5451.899100254406, 2367.5865745497867], [5365.822224613861, 2388.585328738205], [5302.775431387243, 2419.9620509240776], [5213.951430062531, 2437.87686812412], [5151.229644933483, 2469.6030964022502], [5125.168795563397, 2396.107333241962], [5097.897585651954, 2347.14845037926], [5021.8353027622215, 2238.4223691634834], [4981.0608836433385, 2197.932742402889], [4933.415699251345, 2165.809549319558], [4880.590936280671, 2143.1930167227983], [4742.516608420876, 2098.9353249203414], [4672.843901258195, 2085.6259053582326], [4640.764439862338, 2020.1686675697565], [4582.855114552192, 1954.6869811145589], [4286.536154528032, 1740.9393674591556], [4365.102677193587, 1651.1486126678064], [4397.816464054398, 1591.8276109872386], [4439.560910590575, 1543.7662316784263], [4514.544337514788, 1473.6567347943783], [4628.851139913197, 1397.4325195392594], [4669.727677371702, 1358.230191335082], [4702.65126321686, 1312.1460145926103], [4726.486617231974, 1260.7690766695887], [4760.821448937175, 1075.6242170417681], [4761.349381508655, 984.6917571099475], [4746.698280807235, 925.7363674733788], [4720.653682698612, 870.8540239715949], [4684.248801858281, 822.221962839365], [4638.92785550782, 781.7694655023515], [4586.48876991251, 751.1013220828027], [4529.011854874319, 731.4341678246856], [4227.1135224753525, 690.380280061625], [3884.052044838667, 614.2781951818615], [3827.294818879571, 475.35511653032154], [3792.8770788722904, 428.78371280804276], [3750.2773016934516, 389.5569941578433], [3674.462848197436, 347.49635655619204], [3322.4060941423522, 214.91477955505252], [3264.8304631366627, 204.91293449606746], [3206.404109201394, 206.07541290018708], [2974.2432965815533, 254.55795895960182], [2865.9356312562013, 243.72399945370853], [2667.2439037569566, 159.45173928979784], [2489.2398919608677, 116.76225414592773], [2433.61060637224, 113.45525311958045], [2378.3081812817836, 120.3251475924626], [2131.1484080452938, 197.2227480923757], [2075.646411495749, 221.06565031129867], [2003.8654651392717, 276.05675969831645], [1966.3965165525442, 323.43854416161776], [1939.7789440171327, 375.5375117762014], [1513.755261052167, 517.9120928244665], [1407.1851327554323, 563.0372081100941], [1304.9806486145826, 584.8660926977172], [1227.3993445517262, 626.6796857472509], [1144.191666160361, 692.2129665333778], [927.8035386017291, 905.5913003059104], [746.2051289275987, 1139.4217633064836], [715.1890472631203, 1193.8732677921653], [677.0668723407434, 1310.7552471198142], [669.8007396307075, 1391.5242490256205], [680.2429078818532, 1478.9804097004235], [518.488043945632, 1472.054781243205], [432.34593077294994, 1485.8794117784128], [378.63396394299343, 1508.482322874479], [330.2011895246105, 1540.8880836702883], [288.8156404021429, 1581.913725586608], [255.98809130571317, 1630.0616122586653], [212.5451164705446, 1735.7965564066544], [208.6902204088401, 1839.0884797349572], [139.01178189145867, 1970.6358540020883], [102.88743885257281, 2125.0090008219704], [95.45708940422628, 2188.6161137456074], [108.59434578532819, 2326.0904964162037], [218.67138897371478, 2700.6172835258767], [222.89872943260707, 2794.170190227218], [248.03761788026895, 2909.99340112973], [192.52223502157722, 3002.9521178314462], [151.93002177600283, 3153.3575866892934], [150.13474589097314, 3212.9032358648255], [170.53088959876914, 3313.228935116902], [134.0680179266492, 3420.001369685866], [129.64508056396153, 3525.652857426554], [110.93705707078334, 3591.7576059866697], [107.43233365099877, 3655.3774559739977], [118.80720094637945, 3770.742779975757], [181.47498575388454, 3983.907318411395], [138.96871016162913, 4073.383672791533], [124.19727493810933, 4131.635567033663], [120.11811913142446, 4188.011652893387]]]}, "properties": {"winter_sports_id": "1228774360", "kind": "ski_area_1000ft_buffer", "buffer_m": 305, "name": "Killington Resort"}}]}